******** Week 379 almanac for PRN-17 ********
ID:                         17
Health:                     000
Eccentricity:               0.1260185242E-001
Time of Applicability(s):  503808.0000
Orbital Inclination(rad):   0.9575120062
Rate of Right Ascen(r/s):  -0.8068907531E-008
SQRT(A)  (m 1/2):           5153.615234
Right Ascen at Week(rad):  -0.3120546108E+000
Argument of Perigee(rad):  -1.099929764
Mean Anom(rad):             0.1938071624E+001
Af0(s):                    -0.1745223999E-003
Af1(s/s):                  -0.7275957614E-011
week:                        379

******** Week 379 almanac for PRN-18 ********
ID:                         18
Health:                     000
Eccentricity:               0.6280422211E-002
Time of Applicability(s):  503808.0000
Orbital Inclination(rad):   0.9709043776
Rate of Right Ascen(r/s):  -0.7657461821E-008
SQRT(A)  (m 1/2):           5153.579102
Right Ascen at Week(rad):   0.6995027294E+000
Argument of Perigee(rad):  -2.861211600
Mean Anom(rad):            -0.2967069382E-001
Af0(s):                    -0.3023147583E-003
Af1(s/s):                   0.7275957614E-011
week:                        379

******** Week 379 almanac for PRN-19 ********
ID:                         19
Health:                     000
Eccentricity:               0.1176977158E-001
Time of Applicability(s):  503808.0000
Orbital Inclination(rad):   0.9566850947
Rate of Right Ascen(r/s):  -0.8000333246E-008
SQRT(A)  (m 1/2):           5153.701172
Right Ascen at Week(rad):  -0.2682930900E+000
Argument of Perigee(rad):   3.026863174
Mean Anom(rad):            -0.2708782371E+001
Af0(s):                     0.7038116455E-003
Af1(s/s):                   0.0000000000E+000
week:                        379

******** Week 379 almanac for PRN-20 ********
ID:                         20
Health:                     000
Eccentricity:               0.1909255981E-002
Time of Applicability(s):  503808.0000
Orbital Inclination(rad):   0.9620899801
Rate of Right Ascen(r/s):  -0.8160339911E-008
SQRT(A)  (m 1/2):           5153.562012
Right Ascen at Week(rad):   0.2752617670E+001
Argument of Perigee(rad):  -1.759708907
Mean Anom(rad):            -0.1738398334E+001
Af0(s):                     0.2336502075E-003
Af1(s/s):                   0.1091393642E-010
week:                        379

******** Week 379 almanac for PRN-21 ********
ID:                         21
Health:                     000
Eccentricity:               0.7934570312E-003
Time of Applicability(s):  503808.0000
Orbital Inclination(rad):   0.9640973378
Rate of Right Ascen(r/s):  -0.8137481816E-008
SQRT(A)  (m 1/2):           5153.537598
Right Ascen at Week(rad):   0.1746561838E+001
Argument of Perigee(rad):  -0.086199159
Mean Anom(rad):            -0.2019596561E+001
Af0(s):                     0.3976821899E-003
Af1(s/s):                  -0.3637978807E-011
week:                        379

******** Week 379 almanac for PRN-22 ********
ID:                         22
Health:                     000
Eccentricity:               0.1185512543E-001
Time of Applicability(s):  503808.0000
Orbital Inclination(rad):   0.9567809685
Rate of Right Ascen(r/s):  -0.8034620388E-008
SQRT(A)  (m 1/2):           5153.660645
Right Ascen at Week(rad):  -0.1324302167E+001
Argument of Perigee(rad):  -0.988758101
Mean Anom(rad):             0.2551838085E+001
Af0(s):                     0.3814697266E-004
Af1(s/s):                   0.7275957614E-011
week:                        379

******** Week 379 almanac for PRN-23 ********
ID:                         23
Health:                     000
Eccentricity:               0.6427288055E-002
Time of Applicability(s):  503808.0000
Orbital Inclination(rad):   0.9891144073
Rate of Right Ascen(r/s):  -0.7874613724E-008
SQRT(A)  (m 1/2):           5153.682129
Right Ascen at Week(rad):   0.1709134729E+001
Argument of Perigee(rad):  -2.742336328
Mean Anom(rad):            -0.1247962655E+001
Af0(s):                     0.6704330444E-003
Af1(s/s):                   0.3637978807E-011
week:                        379

******** Week 379 almanac for PRN-24 ********
ID:                         24
Health:                     000
Eccentricity:               0.1840734482E-001
Time of Applicability(s):  503808.0000
Orbital Inclination(rad):   0.9355329377
Rate of Right Ascen(r/s):  -0.7954617056E-008
SQRT(A)  (m 1/2):           5153.582031
Right Ascen at Week(rad):  -0.2574220872E+001
Argument of Perigee(rad):   1.160704015
Mean Anom(rad):             0.1606432918E+000
Af0(s):                     0.1163482666E-003
Af1(s/s):                   0.1818989404E-010
week:                        379

******** Week 379 almanac for PRN-25 ********
ID:                         25
Health:                     000
Eccentricity:               0.1289510727E-001
Time of Applicability(s):  503808.0000
Orbital Inclination(rad):   0.9466542985
Rate of Right Ascen(r/s):  -0.8126052768E-008
SQRT(A)  (m 1/2):           5153.606934
Right Ascen at Week(rad):  -0.1439851068E+001
Argument of Perigee(rad):   1.161716682
Mean Anom(rad):            -0.1655352149E+001
Af0(s):                     0.4053115845E-003
Af1(s/s):                  -0.3637978807E-011
week:                        379

******** Week 379 almanac for PRN-26 ********
ID:                         26
Health:                     000
Eccentricity:               0.1119518280E-001
Time of Applicability(s):  503808.0000
Orbital Inclination(rad):   0.9274256096
Rate of Right Ascen(r/s):  -0.8263201338E-008
SQRT(A)  (m 1/2):           5153.724609
Right Ascen at Week(rad):  -0.1516989779E+001
Argument of Perigee(rad):   0.720795701
Mean Anom(rad):            -0.2535019349E+001
Af0(s):                    -0.3833770752E-003
Af1(s/s):                  -0.3637978807E-011
week:                        379

******** Week 379 almanac for PRN-27 ********
ID:                         27
Health:                     000
Eccentricity:               0.1432657242E-001
Time of Applicability(s):  503808.0000
Orbital Inclination(rad):   0.9509566352
Rate of Right Ascen(r/s):  -0.8148910863E-008
SQRT(A)  (m 1/2):           5153.613281
Right Ascen at Week(rad):  -0.3855961814E+000
Argument of Perigee(rad):   0.900968411
Mean Anom(rad):             0.2075144193E+001
Af0(s):                     0.9536743164E-006
Af1(s/s):                   0.0000000000E+000
week:                        379

******** Week 379 almanac for PRN-28 ********
ID:                         28
Health:                     000
Eccentricity:               0.5173683167E-003
Time of Applicability(s):  503808.0000
Orbital Inclination(rad):   0.9622637514
Rate of Right Ascen(r/s):  -0.7691748964E-008
SQRT(A)  (m 1/2):           5153.578125
Right Ascen at Week(rad):  -0.2487475307E+001
Argument of Perigee(rad):  -0.323385695
Mean Anom(rad):            -0.1318418287E+000
Af0(s):                    -0.4692077637E-003
Af1(s/s):                   0.1091393642E-010
week:                        379

******** Week 379 almanac for PRN-29 ********
ID:                         29
Health:                     000
Eccentricity:               0.3668785095E-002
Time of Applicability(s):  503808.0000
Orbital Inclination(rad):   0.9602144489
Rate of Right Ascen(r/s):  -0.8034620388E-008
SQRT(A)  (m 1/2):           5153.631348
Right Ascen at Week(rad):  -0.2949583649E+000
Argument of Perigee(rad):   2.866176065
Mean Anom(rad):             0.1779475014E+001
Af0(s):                    -0.2803802490E-003
Af1(s/s):                   0.7275957614E-011
week:                        379

******** Week 379 almanac for PRN-30 ********
ID:                         30
Health:                     000
Eccentricity:               0.8218288422E-002
Time of Applicability(s):  503808.0000
Orbital Inclination(rad):   0.9366474707
Rate of Right Ascen(r/s):  -0.7931758961E-008
SQRT(A)  (m 1/2):           5153.635742
Right Ascen at Week(rad):  -0.2474314381E+001
Argument of Perigee(rad):  -2.259219640
Mean Anom(rad):            -0.1106156692E+001
Af0(s):                     0.2985000610E-003
Af1(s/s):                   0.1455191523E-010
week:                        379

******** Week 379 almanac for PRN-31 ********
ID:                         31
Health:                     000
Eccentricity:               0.1090478897E-001
Time of Applicability(s):  503808.0000
Orbital Inclination(rad):   0.9550312717
Rate of Right Ascen(r/s):  -0.7748894201E-008
SQRT(A)  (m 1/2):           5153.588379
Right Ascen at Week(rad):  -0.2438485669E+001
Argument of Perigee(rad):   0.974890106
Mean Anom(rad):            -0.1897853689E+001
Af0(s):                    -0.1344680786E-003
Af1(s/s):                   0.3637978807E-011
week:                        379

******** Week 379 almanac for PRN-32 ********
ID:                         32
Health:                     000
Eccentricity:               0.9452342987E-002
Time of Applicability(s):  503808.0000
Orbital Inclination(rad):   0.9696939708
Rate of Right Ascen(r/s):  -0.8080336578E-008
SQRT(A)  (m 1/2):           5153.522949
Right Ascen at Week(rad):   0.2765167775E+001
Argument of Perigee(rad):  -1.971626705
Mean Anom(rad):             0.2577316173E+001
Af0(s):                     0.1688003540E-003
Af1(s/s):                   0.2182787284E-010
week:                        379

